ONEWEB-0395             
1 50475U 21132G   26157.86698063 -.00000154  00000+0 -46909-3 0  9999
2 50475  87.8894  23.1218 0001907  90.5566 269.5780 13.11415180214360
ONEWEB-0396             
1 50476U 21132H   26157.54451640 -.00000233  00000+0 -62443-3 0  9992
2 50476  87.9168 337.5725 0001984  88.0242 272.1117 13.18685882220231
ONEWEB-0397             
1 50477U 21132J   26157.78732658  .00000073  00000+0  15155-3 0  9998
2 50477  87.9168 337.5243 0001909  83.5185 276.6164 13.18683967220244
ONEWEB-0398             
1 50478U 21132K   26157.60587305  .00000452  00000+0  12382-2 0  9996
2 50478  87.8906  23.1634 0001830  95.0735 265.0601 13.11419770214229
ONEWEB-0399             
1 50479U 21132L   26157.66860389 -.00000205  00000+0 -61555-3 0  9994
2 50479  87.8907  23.1620 0002253  78.6417 281.4964 13.11418879214223
ONEWEB-0400             
1 50480U 21132M   26157.76541102  .00000031  00000+0  45478-4 0  9998
2 50480  87.9168 337.5187 0001802  96.2725 263.8612 13.18684506220233
ONEWEB-0401             
1 50481U 21132N   26157.73505409 -.00000050  00000+0 -16031-3 0  9991
2 50481  87.9167 337.5214 0001722  82.9316 277.2012 13.18685673220232
ONEWEB-0402             
1 50482U 21132P   26157.77385095 -.00000153  00000+0 -42058-3 0  9995
2 50482  87.9166 337.5035 0001700  74.8480 285.2840 13.18686245220268
ONEWEB-0403             
1 50483U 21132Q   26157.79912688 -.00000093  00000+0 -26923-3 0  9998
2 50483  87.9166 337.5226 0001976  91.2825 268.8534 13.18684849220223
ONEWEB-0404             
1 50484U 21132R   26157.64995231 -.00000455  00000+0 -13206-2 0  9999
2 50484  87.8894  23.1639 0002136  85.2038 274.9334 13.11415664214314
ONEWEB-0405             
1 50485U 21132S   26157.73675687  .00000086  00000+0  18434-3 0  9997
2 50485  87.9169 337.5191 0001804 105.3370 254.7962 13.18686518220618
ONEWEB-0406             
1 50486U 21132T   26157.72831250 -.00000012  00000+0 -62839-4 0  9997
2 50486  87.9160 337.5378 0002411  90.4867 269.6541 13.18684767220248
ONEWEB-0407             
1 50487U 21132U   26157.79745063 -.00000118  00000+0 -33277-3 0  9991
2 50487  87.9166 337.5157 0001597  89.4411 270.6904 13.18685084220199
ONEWEB-0409             
1 50488U 21132V   26157.64825389 -.00000515  00000+0 -14903-2 0  9991
2 50488  87.8905  23.1532 0002060  90.5280 269.6084 13.11416212214208
ONEWEB-0412             
1 50489U 21132W   26157.78563648 -.00000102  00000+0 -29028-3 0  9991
2 50489  87.9167 337.5270 0001721  80.4621 279.6706 13.18684627220282
ONEWEB-0413             
1 50490U 21132X   26157.48718869  .00000029  00000+0  41886-4 0  9990
2 50490  87.9155 337.5856 0001586  82.2779 277.8533 13.18680150220188
ONEWEB-0414             
1 50491U 21132Y   26157.77552728  .00000034  00000+0  54069-4 0  9996
2 50491  87.9167 337.5093 0001888  85.2562 274.8786 13.18684361220256
ONEWEB-0417             
1 50492U 21132Z   26157.78395606  .00000091  00000+0  19760-3 0  9999
2 50492  87.9158 337.5281 0002038  91.9513 268.1853 13.18684781220239
ONEWEB-0418             
1 50493U 21132AA  26157.79394491 -.00000038  00000+0 -12868-3 0  9997
2 50493  87.9169 337.5248 0002105  92.7812 267.3561 13.18684782220295
ONEWEB-0419             
1 50494U 21132AB  26157.73650179  .00000026  00000+0  32474-4 0  9991
2 50494  87.9167 337.5356 0002012  97.4121 262.7240 13.18665394220208
ONEWEB-0420             
1 50495U 21132AC  26157.47370566  .00000147  00000+0  34008-3 0  9990
2 50495  87.9160 337.5921 0001630  90.8873 269.2446 13.18684697220168
ONEWEB-0421             
1 50496U 21132AD  26157.54283142 -.00000487  00000+0 -12685-2 0  9997
2 50496  87.9164 337.5754 0001998  79.9669 280.1689 13.18687343220213
ONEWEB-0424             
1 50497U 21132AE  26157.73168427 -.00000101  00000+0 -28769-3 0  9991
2 50497  87.9165 337.5353 0001931 100.5388 259.5962 13.18686617220268
ONEWEB-0426             
1 50498U 21132AF  26157.53863564 -.00000022  00000+0 -89203-4 0  9997
2 50498  87.9161 337.5647 0002483  82.7580 277.3835 13.18687471220186
ONEWEB-0427             
1 50499U 21132AG  26157.72999898 -.00000127  00000+0 -35601-3 0  9997
2 50499  87.9167 337.5153 0002040  90.7058 269.4307 13.18685229220234
ONEWEB-0429             
1 50500U 21132AH  26157.79238942 -.00000006  00000+0 -48748-4 0  9996
2 50500  87.9159 337.5284 0001719  90.4963 269.6366 13.18684791220215
ONEWEB-0430             
1 50501U 21132AJ  26157.78058534  .00000085  00000+0  18168-3 0  9990
2 50501  87.9159 337.5291 0001703  97.7424 262.3901 13.18685847220251
ONEWEB-0432             
1 50502U 21132AK  26157.73769061 -.00013833  00000+0 -35232-1 0  9996
2 50502  87.9188 337.5071 0002101 116.0556 244.0792 13.18570459220206
ONEWEB-0440             
1 50503U 21132AL  26157.80081434  .00000034  00000+0  53021-4 0  9992
2 50503  87.9166 337.5202 0001712  80.6529 279.4797 13.18684974220207
ONEWEB-0450             
1 50504U 21132AM  26157.79421802 -.00000037  00000+0 -12669-3 0  9995
2 50504  87.9156 337.5281 0001644  93.6056 266.5265 13.18686252220238
