OBJECT_NAME,OBJECT_ID,EPOCH,MEAN_MOTION,ECCENTRICITY,INCLINATION,RA_OF_ASC_NODE,ARG_OF_PERICENTER,MEAN_ANOMALY,EPHEMERIS_TYPE,CLASSIFICATION_TYPE,NORAD_CAT_ID,ELEMENT_SET_NO,REV_AT_EPOCH,BSTAR,MEAN_MOTION_DOT,MEAN_MOTION_DDOT
ONEWEB-0395,2021-132G,2026-06-06T20:48:27.126432,13.11415180,.00019075,87.8894,23.1218,90.5566,269.5780,0,U,50475,999,21436,-.46909063E-3,-.154E-5,0
ONEWEB-0396,2021-132H,2026-06-06T13:04:06.216960,13.18685882,.00019848,87.9168,337.5725,88.0242,272.1117,0,U,50476,999,22023,-.62443147E-3,-.233E-5,0
ONEWEB-0397,2021-132J,2026-06-06T18:53:45.016512,13.18683967,.00019094,87.9168,337.5243,83.5185,276.6164,0,U,50477,999,22024,.15154957E-3,.73E-6,0
ONEWEB-0398,2021-132K,2026-06-06T14:32:27.431520,13.11419770,.00018306,87.8906,23.1634,95.0735,265.0601,0,U,50478,999,21422,.12382042E-2,.452E-5,0
ONEWEB-0399,2021-132L,2026-06-06T16:02:47.376096,13.11418879,.00022536,87.8907,23.1620,78.6417,281.4964,0,U,50479,999,21422,-.61555311E-3,-.205E-5,0
ONEWEB-0400,2021-132M,2026-06-06T18:22:11.512128,13.18684506,.00018028,87.9168,337.5187,96.2725,263.8612,0,U,50480,999,22023,.45477701E-4,.31E-6,0
ONEWEB-0401,2021-132N,2026-06-06T17:38:28.673376,13.18685673,.0001722,87.9167,337.5214,82.9316,277.2012,0,U,50481,999,22023,-.16031118E-3,-.5E-6,0
ONEWEB-0402,2021-132P,2026-06-06T18:34:20.722080,13.18686245,.00017008,87.9166,337.5035,74.8480,285.2840,0,U,50482,999,22026,-.4205829E-3,-.153E-5,0
ONEWEB-0403,2021-132Q,2026-06-06T19:10:44.562432,13.18684849,.00019763,87.9166,337.5226,91.2825,268.8534,0,U,50483,999,22022,-.2692259E-3,-.93E-6,0
ONEWEB-0404,2021-132R,2026-06-06T15:35:55.879584,13.11415664,.00021361,87.8894,23.1639,85.2038,274.9334,0,U,50484,999,21431,-.13205598E-2,-.455E-5,0
ONEWEB-0405,2021-132S,2026-06-06T17:40:55.793568,13.18686518,.00018043,87.9169,337.5191,105.3370,254.7962,0,U,50485,999,22061,.18434416E-3,.86E-6,0
ONEWEB-0406,2021-132T,2026-06-06T17:28:46.200000,13.18684767,.00024115,87.9160,337.5378,90.4867,269.6541,0,U,50486,999,22024,-.6283899E-4,-.12E-6,0
ONEWEB-0407,2021-132U,2026-06-06T19:08:19.734432,13.18685084,.00015977,87.9166,337.5157,89.4411,270.6904,0,U,50487,999,22019,-.33277061E-3,-.118E-5,0
ONEWEB-0409,2021-132V,2026-06-06T15:33:29.136096,13.11416212,.00020609,87.8905,23.1532,90.5280,269.6084,0,U,50488,999,21420,-.14903216E-2,-.515E-5,0
ONEWEB-0412,2021-132W,2026-06-06T18:51:18.991872,13.18684627,.0001721,87.9167,337.5270,80.4621,279.6706,0,U,50489,999,22028,-.29027514E-3,-.102E-5,0
ONEWEB-0413,2021-132X,2026-06-06T11:41:33.102816,13.18680150,.00015864,87.9155,337.5856,82.2779,277.8533,0,U,50490,999,22018,.41885515E-4,.29E-6,0
ONEWEB-0414,2021-132Y,2026-06-06T18:36:45.556992,13.18684361,.00018885,87.9167,337.5093,85.2562,274.8786,0,U,50491,999,22025,.54068898E-4,.34E-6,0
ONEWEB-0417,2021-132Z,2026-06-06T18:48:53.803584,13.18684781,.00020384,87.9158,337.5281,91.9513,268.1853,0,U,50492,999,22023,.19759764E-3,.91E-6,0
ONEWEB-0418,2021-132AA,2026-06-06T19:03:16.840224,13.18684782,.0002105,87.9169,337.5248,92.7812,267.3561,0,U,50493,999,22029,-.12867765E-3,-.38E-6,0
ONEWEB-0419,2021-132AB,2026-06-06T17:40:33.754656,13.18665394,.00020124,87.9167,337.5356,97.4121,262.7240,0,U,50494,999,22020,.32474093E-4,.26E-6,0
ONEWEB-0420,2021-132AC,2026-06-06T11:22:08.169024,13.18684697,.00016306,87.9160,337.5921,90.8873,269.2446,0,U,50495,999,22016,.34008385E-3,.147E-5,0
ONEWEB-0421,2021-132AD,2026-06-06T13:01:40.634688,13.18687343,.0001998,87.9164,337.5754,79.9669,280.1689,0,U,50496,999,22021,-.12685E-2,-.487E-5,0
ONEWEB-0424,2021-132AE,2026-06-06T17:33:37.520928,13.18686617,.00019313,87.9165,337.5353,100.5388,259.5962,0,U,50497,999,22026,-.28769177E-3,-.101E-5,0
ONEWEB-0426,2021-132AF,2026-06-06T12:55:38.119296,13.18687471,.0002483,87.9161,337.5647,82.7580,277.3835,0,U,50498,999,22018,-.89203E-4,-.22E-6,0
ONEWEB-0427,2021-132AG,2026-06-06T17:31:11.911872,13.18685229,.00020402,87.9167,337.5153,90.7058,269.4307,0,U,50499,999,22023,-.35600712E-3,-.127E-5,0
ONEWEB-0429,2021-132AH,2026-06-06T19:01:02.445888,13.18684791,.00017191,87.9159,337.5284,90.4963,269.6366,0,U,50500,999,22021,-.48747602E-4,-.6E-7,0
ONEWEB-0430,2021-132AJ,2026-06-06T18:44:02.573376,13.18685847,.0001703,87.9159,337.5291,97.7424,262.3901,0,U,50501,999,22025,.18168238E-3,.85E-6,0
ONEWEB-0432,2021-132AK,2026-06-06T17:42:16.468704,13.18570459,.00021013,87.9188,337.5071,116.0556,244.0792,0,U,50502,999,22020,-.3523236E-1,-.13833E-3,0
ONEWEB-0440,2021-132AL,2026-06-06T19:13:10.358976,13.18684974,.00017127,87.9166,337.5202,80.6529,279.4797,0,U,50503,999,22020,.53020975E-4,.34E-6,0
ONEWEB-0450,2021-132AM,2026-06-06T19:03:40.436928,13.18686252,.00016441,87.9156,337.5281,93.6056,266.5265,0,U,50504,999,22023,-.12669248E-3,-.37E-6,0
